NOAA 15                 
1 25338U 98030A   21323.14673765  .00000053  00000-0  40455-4 0  9991
2 25338  98.6683 350.1867 0010320 184.7578 175.3505 14.26070610223290
